[{"OBJECT_NAME":"STARLINK-31971","OBJECT_ID":"2024-106N","EPOCH":"2026-03-09T03:18:33.766848","MEAN_MOTION":15.27576691,"ECCENTRICITY":0.00012285,"INCLINATION":43.0017,"RA_OF_ASC_NODE":332.4416,"ARG_OF_PERICENTER":272.0986,"MEAN_ANOMALY":87.9725,"EPHEMERIS_TYPE":0,"CLASSIFICATION_TYPE":"U","NORAD_CAT_ID":59934,"ELEMENT_SET_NO":999,"REV_AT_EPOCH":10035,"BSTAR":-4.1123542e-5,"MEAN_MOTION_DOT":-1.393e-5,"MEAN_MOTION_DDOT":0},{"OBJECT_NAME":"OBJECT D","OBJECT_ID":"2025-197D","EPOCH":"2026-03-09T23:30:56.303712","MEAN_MOTION":15.25287442,"ECCENTRICITY":0.00144425,"INCLINATION":97.4091,"RA_OF_ASC_NODE":257.3677,"ARG_OF_PERICENTER":3.398,"MEAN_ANOMALY":356.7353,"EPHEMERIS_TYPE":0,"CLASSIFICATION_TYPE":"U","NORAD_CAT_ID":65491,"ELEMENT_SET_NO":999,"REV_AT_EPOCH":2822,"BSTAR":0.00037200129,"MEAN_MOTION_DOT":9.321e-5,"MEAN_MOTION_DDOT":0}]
